NORAD_CAT_ID,OBJECT_NAME,OBJECT_TYPE,EPOCH,MEAN_MOTION,ECCENTRICITY,INCLINATION,RA_OF_ASC_NODE,ARG_OF_PERICENTER,MEAN_ANOMALY,BSTAR,MEAN_MOTION_DOT,MEAN_MOTION_DDOT,TLE_LINE0,TLE_LINE1,TLE_LINE2,SEMIMAJOR_AXIS,PERIOD,APOGEE,PERIGEE,DECAYED
52484.0,STARLINK-3887,PAYLOAD,2023-05-31 08:24:13,15.0883693,7.53e-05,53.2173,288.1786,98.6554,261.4524,0.00011369,1.522e-05,0.0,0 STARLINK-3887,1 52484U 22049AK  23151.35015080  .00001522  00000-0  11369-3 0  9997,2 52484  53.2173 288.1786 0000753  98.6554 261.4524 15.08836930 59436,6917.89,95.438,540.276,539.234,0.0
52484.0,STARLINK-3887,PAYLOAD,2023-05-31 13:10:22,15.08835857,7.64e-05,53.2175,287.2864,101.3976,258.7102,0.0001023,1.341e-05,0.0,0 STARLINK-3887,1 52484U 22049AK  23151.54887223  .00001341  00000-0  10230-3 0  9999,2 52484  53.2175 287.2864 0000764 101.3976 258.7102 15.08835857 59301,6917.893,95.438,540.287,539.23,0.0
52484.0,STARLINK-3887,PAYLOAD,2023-05-31 16:21:08,15.08848209,0.0001049,53.2184,286.692,111.4671,248.6433,2.541e-05,1.17e-06,0.0,0 STARLINK-3887,1 52484U 22049AK  23151.68134602  .00000117  00000-0  25410-4 0  9997,2 52484  53.2184 286.6920 0001049 111.4671 248.6433 15.08848209 59487,6917.855,95.437,540.446,538.995,0.0
52484.0,STARLINK-3887,PAYLOAD,2023-06-02 01:44:14,15.08838633,7.9e-05,53.2162,280.4454,80.4655,279.6427,3.2139e-05,2.24e-06,0.0,0 STARLINK-3887,1 52484U 22049AK  23153.07239289  .00000224  00000-0  32139-4 0  9994,2 52484  53.2162 280.4454 0000790  80.4655 279.6427 15.08838633 59696,6917.885,95.438,540.296,539.203,0.0
52484.0,STARLINK-3887,PAYLOAD,2023-06-02 14:27:20,15.08838363,8.41e-05,53.2159,278.0668,78.9628,281.1459,7.6714e-05,9.33e-06,0.0,0 STARLINK-3887,1 52484U 22049AK  23153.60231519  .00000933  00000-0  76714-4 0  9995,2 52484  53.2159 278.0668 0000841  78.9628 281.1459 15.08838363 59616,6917.885,95.438,540.332,539.169,0.0
52484.0,STARLINK-3887,PAYLOAD,2023-06-02 16:02:43,15.08840649,9.72e-05,53.216,277.7695,85.4273,274.683,9.7999e-05,1.272e-05,0.0,0 STARLINK-3887,1 52484U 22049AK  23153.66855426  .00001272  00000-0  97999-4 0  9995,2 52484  53.2160 277.7695 0000972  85.4273 274.6830 15.08840649 59629,6917.878,95.438,540.416,539.071,0.0
52484.0,STARLINK-3887,PAYLOAD,2023-06-03 07:56:35,15.08810964,7.18e-05,53.2173,274.7976,85.2346,274.8728,0.00043623,6.656e-05,0.0,0 STARLINK-3887,1 52484U 22049AK  23154.33096203  .00006656  00000-0  43623-3 0  9995,2 52484  53.2173 274.7976 0000718  85.2346 274.8728 15.08810964 59882,6917.969,95.439,540.331,539.337,0.0
52484.0,STARLINK-3887,PAYLOAD,2023-06-03 14:18:07,15.08836668,9.7e-05,53.2163,273.6074,73.438,286.6719,6.818e-05,7.97e-06,0.0,0 STARLINK-3887,1 52484U 22049AK  23154.59592017  .00000797  00000-0  68180-4 0  9993,2 52484  53.2163 273.6074 0000970  73.4380 286.6719 15.08836668 59762,6917.891,95.438,540.427,539.085,0.0
52484.0,STARLINK-3887,PAYLOAD,2023-06-03 17:28:53,15.08836968,8.13e-05,53.2165,273.0123,80.6653,279.4431,0.00016572,2.351e-05,0.0,0 STARLINK-3887,1 52484U 22049AK  23154.72839720  .00002351  00000-0  16572-3 0  9998,2 52484  53.2165 273.0123 0000813  80.6653 279.4431 15.08836968 59946,6917.89,95.438,540.317,539.192,0.0
52484.0,STARLINK-3887,PAYLOAD,2023-06-04 14:08:54,15.08843193,9.33e-05,53.2164,269.1454,83.3881,276.7218,7.9026e-05,9.7e-06,0.0,0 STARLINK-3887,1 52484U 22049AK  23155.58951645  .00000970  00000-0  79026-4 0  9993,2 52484  53.2164 269.1454 0000933  83.3881 276.7218 15.08843193 59912,6917.871,95.437,540.381,539.09,0.0
52484.0,STARLINK-3887,PAYLOAD,2023-06-05 10:48:54,15.08865686,0.0001011,53.2159,265.2786,82.5804,277.5303,-0.00019685,-3.421e-05,0.0,0 STARLINK-3887,1 52484U 22049AK  23156.45062524 -.00003421  00000-0 -19685-3 0  9999,2 52484  53.2159 265.2786 0001011  82.5804 277.5303 15.08865686 60204,6917.802,95.436,540.366,538.967,0.0
52484.0,STARLINK-3887,PAYLOAD,2023-06-05 13:59:40,15.08847998,9.25e-05,53.2162,264.6851,84.014,276.0958,0.00016418,2.327e-05,0.0,0 STARLINK-3887,1 52484U 22049AK  23156.58311003  .00002327  00000-0  16418-3 0  9995,2 52484  53.2162 264.6851 0000925  84.0140 276.0958 15.08847998 60067,6917.856,95.437,540.361,539.081,0.0
52484.0,STARLINK-3887,PAYLOAD,2023-06-05 17:10:26,15.08850301,8.13e-05,53.2164,264.0903,89.7167,270.3919,0.00016361,2.318e-05,0.0,0 STARLINK-3887,1 52484U 22049AK  23156.71558836  .00002318  00000-0  16361-3 0  9994,2 52484  53.2164 264.0903 0000813  89.7167 270.3919 15.08850301 60244,6917.849,95.437,540.276,539.151,0.0
52484.0,STARLINK-3887,PAYLOAD,2023-06-06 07:28:55,15.08841491,9.29e-05,53.2157,261.4139,82.7597,277.3501,4.0198e-05,3.52e-06,0.0,0 STARLINK-3887,1 52484U 22049AK  23157.31175635  .00000352  00000-0  40198-4 0  9995,2 52484  53.2157 261.4139 0000929  82.7597 277.3501 15.08841491 60330,6917.876,95.437,540.384,539.098,0.0
52484.0,STARLINK-3887,PAYLOAD,2023-06-06 12:15:05,15.08840598,9.56e-05,53.2157,260.5217,87.8008,272.3093,1.7454e-05,-1e-07,0.0,0 STARLINK-3887,1 52484U 22049AK  23157.51047586 -.00000010  00000-0  17454-4 0  9991,2 52484  53.2157 260.5217 0000956  87.8008 272.3093 15.08840598 60204,6917.879,95.438,540.405,539.082,0.0
52484.0,STARLINK-3887,PAYLOAD,2023-06-06 17:01:14,15.08842673,8.82e-05,53.2165,259.6298,85.2712,274.838,5.0548e-05,5.17e-06,0.0,0 STARLINK-3887,1 52484U 22049AK  23157.70919562  .00000517  00000-0  50548-4 0  9996,2 52484  53.2165 259.6298 0000882  85.2712 274.8380 15.08842673 60238,6917.872,95.437,540.347,539.127,0.0
52484.0,STARLINK-3887,PAYLOAD,2023-06-07 07:19:43,15.0883708,8.64e-05,53.2161,256.9535,82.6166,277.4925,-2.0207e-05,-6.09e-06,0.0,0 STARLINK-3887,1 52484U 22049AK  23158.30536194 -.00000609  00000-0 -20207-4 0  9992,2 52484  53.2161 256.9535 0000864  82.6166 277.4925 15.08837080 60489,6917.889,95.438,540.352,539.157,0.0
52484.0,STARLINK-3887,PAYLOAD,2023-06-07 16:52:01,15.08844768,9.76e-05,53.2157,255.1693,86.4823,273.6281,-3.0724e-05,-7.77e-06,0.0,0 STARLINK-3887,1 52484U 22049AK  23158.70279713 -.00000777  00000-0 -30724-4 0  9998,2 52484  53.2157 255.1693 0000976  86.4823 273.6281 15.08844768 60547,6917.866,95.437,540.406,539.056,0.0
52484.0,STARLINK-3887,PAYLOAD,2023-06-08 11:56:39,15.08837137,0.0001022,53.2158,251.6003,94.3216,265.7893,9.0307e-05,1.15e-05,0.0,0 STARLINK-3887,1 52484U 22049AK  23159.49768070  .00001150  00000-0  90307-4 0  9991,2 52484  53.2158 251.6003 0001022  94.3216 265.7893 15.08837137 60500,6917.889,95.438,540.461,539.047,0.0
52484.0,STARLINK-3887,PAYLOAD,2023-06-08 15:07:25,15.08843009,9.74e-05,53.216,251.0063,90.6002,269.5102,0.0001263,1.723e-05,0.0,0 STARLINK-3887,1 52484U 22049AK  23159.63015635  .00001723  00000-0  12630-3 0  9997,2 52484  53.2160 251.0063 0000974  90.6002 269.5102 15.08843009 60522,6917.871,95.437,540.41,539.062,0.0
52484.0,STARLINK-3887,PAYLOAD,2023-06-08 16:42:49,15.08826592,9.93e-05,53.2166,250.708,99.2439,260.8666,0.00040435,6.151e-05,0.0,0 STARLINK-3887,1 52484U 22049AK  23159.69640349  .00006151  00000-0  40435-3 0  9993,2 52484  53.2166 250.7080 0000993  99.2439 260.8666 15.08826592 60698,6917.921,95.438,540.473,539.099,0.0
52484.0,STARLINK-3887,PAYLOAD,2023-06-09 10:12:03,15.08839512,0.0001223,53.2163,247.4362,118.7239,241.3876,9.4697e-05,1.22e-05,0.0,0 STARLINK-3887,1 52484U 22049AK  23160.42503930  .00001220  00000-0  94697-4 0  9992,2 52484  53.2163 247.4362 0001223 118.7239 241.3876 15.08839512 60641,6917.882,95.438,540.593,538.901,0.0
52484.0,STARLINK-3887,PAYLOAD,2023-06-09 14:58:12,15.08841999,0.0001276,53.2166,246.5437,109.2618,250.8512,0.0001182,1.594e-05,0.0,0 STARLINK-3887,1 52484U 22049AK  23160.62375761  .00001594  00000-0  11820-3 0  9993,2 52484  53.2166 246.5437 0001276 109.2618 250.8512 15.08841999 60836,6917.874,95.437,540.622,538.857,0.0
52484.0,STARLINK-3887,PAYLOAD,2023-06-09 22:55:08,15.08836012,8.89e-05,53.217,245.0594,82.562,277.5473,8.035e-05,9.91e-06,0.0,0 STARLINK-3887,1 52484U 22049AK  23160.95496211  .00000991  00000-0  80350-4 0  9998,2 52484  53.2170 245.0594 0000889  82.5620 277.5473 15.08836012 60881,6917.893,95.438,540.373,539.143,0.0
52484.0,STARLINK-3887,PAYLOAD,2023-06-10 11:38:14,15.08833579,7.15e-05,53.2159,242.6802,86.8989,273.2085,6.1523e-05,6.91e-06,0.0,0 STARLINK-3887,1 52484U 22049AK  23161.48488590  .00000691  00000-0  61523-4 0  9996,2 52484  53.2159 242.6802 0000715  86.8989 273.2085 15.08833579 60805,6917.9,95.438,540.26,539.27,0.0
52484.0,STARLINK-3887,PAYLOAD,2023-06-10 14:49:00,15.08839712,8.89e-05,53.216,242.085,93.7818,266.3276,3.3938e-06,-2.34e-06,0.0,0 STARLINK-3887,1 52484U 22049AK  23161.61736389 -.00000234  00000-0  33938-5 0  9997,2 52484  53.2160 242.0850 0000889  93.7818 266.3276 15.08839712 60826,6917.881,95.438,540.361,539.131,0.0
52484.0,STARLINK-3887,PAYLOAD,2023-06-11 11:29:00,15.08849998,9.27e-05,53.2166,238.2187,90.3458,269.764,9.5909e-05,1.239e-05,0.0,0 STARLINK-3887,1 52484U 22049AK  23162.47847596  .00001239  00000-0  95909-4 0  9995,2 52484  53.2166 238.2187 0000927  90.3458 269.7640 15.08849998 61110,6917.85,95.437,540.356,539.074,0.0
52484.0,STARLINK-3887,PAYLOAD,2023-06-11 14:39:46,15.08852057,9.71e-05,53.2165,237.6237,83.4579,276.6524,0.00010931,1.453e-05,0.0,0 STARLINK-3887,1 52484U 22049AK  23162.61095434  .00001453  00000-0  10931-3 0  9996,2 52484  53.2165 237.6237 0000971  83.4579 276.6524 15.08852057 60975,6917.844,95.437,540.38,539.037,0.0
52484.0,STARLINK-3887,PAYLOAD,2023-06-11 22:36:42,15.08848637,9.52e-05,53.2164,236.1368,88.1424,271.9677,9.5097e-05,1.226e-05,0.0,0 STARLINK-3887,1 52484U 22049AK  23162.94215564  .00001226  00000-0  95097-4 0  9995,2 52484  53.2164 236.1368 0000952  88.1424 271.9677 15.08848637 61026,6917.854,95.437,540.378,539.06,0.0
52484.0,STARLINK-3887,PAYLOAD,2023-06-12 08:09:01,15.088407,0.0001019,53.2162,234.353,79.0756,281.035,0.00016243,2.298e-05,0.0,0 STARLINK-3887,1 52484U 22049AK  23163.33960077  .00002298  00000-0  16243-3 0  9990,2 52484  53.2162 234.3530 0001019  79.0756 281.0350 15.08840700 61244,6917.878,95.438,540.448,539.038,0.0
